[{"OBJECT_NAME":"JILIN-1 08","OBJECT_ID":"2018-008F","EPOCH":"2026-03-09T22:37:53.184288","MEAN_MOTION":15.32205976,"ECCENTRICITY":0.00081321,"INCLINATION":97.1902,"RA_OF_ASC_NODE":90.9961,"ARG_OF_PERICENTER":76.0646,"MEAN_ANOMALY":284.15,"EPHEMERIS_TYPE":0,"CLASSIFICATION_TYPE":"U","NORAD_CAT_ID":43160,"ELEMENT_SET_NO":999,"REV_AT_EPOCH":44974,"BSTAR":0.00036689195,"MEAN_MOTION_DOT":0.00011349,"MEAN_MOTION_DDOT":0},{"OBJECT_NAME":"STARLINK-2586","OBJECT_ID":"2021-038AP","EPOCH":"2026-03-09T22:12:28.675296","MEAN_MOTION":15.30196494,"ECCENTRICITY":0.00016431,"INCLINATION":53.1631,"RA_OF_ASC_NODE":331.5574,"ARG_OF_PERICENTER":127.3896,"MEAN_ANOMALY":232.7255,"EPHEMERIS_TYPE":0,"CLASSIFICATION_TYPE":"U","NORAD_CAT_ID":48390,"ELEMENT_SET_NO":999,"REV_AT_EPOCH":26869,"BSTAR":-0.0001601936,"MEAN_MOTION_DOT":-5.1e-5,"MEAN_MOTION_DDOT":0}]
